THURAYA-4               
1 62483U 25001A   26191.57567095  .00000149  00000+0  00000+0 0  9996
2 62483   0.0190  68.0478 0000207 195.2844 276.7116  1.00272689  4414
SHIJIAN-25 (SJ-25)      
1 62485U 25002A   26191.61572458 -.00000346  00000+0  00000+0 0  9993
2 62485   5.1661  61.0114 0052136 175.2648  41.1794  1.00265093  5590
TJS-14                  
1 62804U 25017A   26191.64184014  .00000126  00000+0  00000+0 0  9999
2 62804   0.7319 297.3128 0001778 293.7870 306.9311  1.00273952  5505
SPAINSAT NG I           
1 62852U 25021A   26191.05739304  .00000163  00000+0  00000+0 0  9991
2 62852   0.0169  22.9629 0000258 163.4669 151.2031  1.00273871  4210
QZS-6 (MICHIBIKI-6)     
1 62876U 25023A   26191.55878071 -.00000222  00000+0  00000+0 0  9996
2 62876   0.0221 317.3021 0001813 172.6763  90.1502  1.00268333  5185
ZHONGXING-10R           
1 63075U 25036A   26191.35253189 -.00000342  00000+0  00000+0 0  9990
2 63075   0.0456 225.3526 0004156 280.3780  19.9363  1.00274088  5193
TJS-15                  
1 63157U 25045A   26191.72814830 -.00000256  00000+0  00000+0 0  9992
2 63157   0.3048  85.6295 0003395 295.8901 263.6332  1.00270936  4993
TIANLIAN 2-04           
1 63361U 25062A   26191.36878968 -.00000119  00000+0  00000+0 0  9998
2 63361   4.3178 274.1058 0031529   9.3143 217.6680  1.00269927  4832
TJS-16                  
1 63397U 25064A   26191.76251544 -.00000097  00000+0  00000+0 0  9993
2 63397   1.1560  81.3121 0002525 291.1995 351.2981  1.00270903  4622
TJS-17                  
1 63524U 25073A   26191.68586661 -.00000062  00000+0  00000+0 0  9999
2 63524   1.1218  82.4934 0001049 304.9043 312.6331  1.00270433  4522
TIANLIAN 2-05           
1 63662U 25084A   26191.57090426  .00000139  00000+0  00000+0 0  9995
2 63662   4.3946 279.5655 0002671 153.4213  81.4077  1.00269823  4614
TJS-19                  
1 63924U 25097A   26191.73743324 -.00000264  00000+0  00000+0 0  9990
2 63924   3.2484 317.8119 0003908 244.5030 133.0478  1.00267946  4381
CHINASAT 3B             
1 64062U 25106A   26191.67133543 -.00000035  00000+0  00000+0 0  9990
2 64062   0.0359 172.8749 0003865 328.8298 195.8793  1.00273832  4290
SXM-10                  
1 64290U 25122A   26191.54386413 -.00000007  00000+0  00000+0 0  9992
2 64290   0.0174  38.1956 0001716 320.6632   9.2432  1.00271764  3915
COSMOS 2589             
1 64467U 25131A   26191.75708491 -.00000281  00000+0  00000+0 0  9999
2 64467   0.0546  99.6427 0001423 123.8203  75.7155  1.00267949  3797
CHINASAT 9C             
1 64470U 25132A   26191.55878071 -.00000237  00000+0  00000+0 0  9995
2 64470   0.0206 274.4565 0002913 197.9798 109.4188  1.00270476  4382
MTG-S1                  
1 64723U 25143A   26191.56683091  .00000002  00000+0  00000+0 0  9994
2 64723   0.5872 343.9313 0003450 262.0823 246.0994  1.00272704  3658
DROR 1                  
1 64784U 25148A   26191.56596424 -.00000025  00000+0  00000+0 0  9995
2 64784   0.0524 267.1326 0002039 129.1608  91.9344  1.00271333  3531
SHIYAN-29               
1 65486U 25196A   26191.49632755 -.00000278  00000+0  00000+0 0  9998
2 65486  28.8459  18.2414 0013565 177.3330   6.7709  1.00277820  3112
NUSANTARA LIMA (NUSANT*)
1 65588U 25205A   26191.23271696 -.00000347  00000+0  00000+0 0  9994
2 65588   0.0015 205.3939 0000492 336.5204 302.8780  1.00270709  2959
TJS-20                  
1 66142U 25238A   26191.43662874  .00000041  00000+0  00000+0 0  9991
2 66142   5.4196 299.4556 0004369 179.3984  29.1063  1.00273545  2560
CMS-03 (GSAT-7R)        
1 66311U 25249B   26191.58152090 -.00000067  00000+0  00000+0 0  9990
2 66311   0.0410 260.2252 0001521 177.9129 133.6848  1.00271157  2580
VIASAT-3 F2             
1 66454U 25261A   26191.30808817 -.00000223  00000+0  00000+0 0  9991
2 66454   0.0089 251.5940 0000917 332.8173  95.7666  1.00270895  3020
SHIJIAN-28 (SJ-28)      
1 66549U 25277A   26191.59001322 -.00000345  00000+0  00000+0 0  9995
2 66549   4.4802 271.7610 0001112  24.8341 321.1732  1.00269397  2380
TJS-22                  
1 66990U 25290A   26190.81499402  .00000006  00000+0  00000+0 0  9997
2 66990   1.4745 286.8754 0002246 318.3001  42.5207  1.00274772  2252
TJS-23                  
1 67226U 25306A   26190.54052052  .00000035  00000+0  00000+0 0  9996
2 67226   5.5376 297.3710 0004885 190.2855 169.9087  1.00274138  2115
FENGYUN 4C              
1 67246U 25312A   26191.73578657 -.00000314  00000+0  00000+0 0  9992
2 67246   0.0411 183.1635 0000630  28.5726 114.8054  1.00270370  2015
SHIJIAN-29A (SJ-29A)    
1 67302U 25315A   26191.65264191 -.00000063  00000+0  00000+0 0  9995
2 67302   3.4546  94.5528 0003814  34.2687 107.8378  1.00278718  1853
SHIJIAN-29B (SJ-29B)    
1 67403U 25315C   26191.65272859 -.00000062  00000+0  00000+0 0  9996
2 67403   3.4536  94.5445 0004794  51.4228  90.7761  1.00271939  1924
ELEKTRO-L 5             
1 67756U 26028A   26190.98893873 -.00000086  00000+0  00000+0 0  9995
2 67756   0.2143 322.0774 0002003 176.7514 221.1873  1.00272020  1485
JAM-E JAM 1             
1 67757U 26028B   26191.57359094  .00000166  00000+0  00000+0 0  9992
2 67757   0.2155 310.6143 0001652 324.2854 254.0929  1.00271524  1359
ECHOSTAR 25             
1 68126U 26045A   26191.54507747 -.00000047  00000+0  00000+0 0  9998
2 68126   0.0188  42.9577 0001439  64.0222 267.7143  1.00270009  1223
