OBJECT_NAME,OBJECT_ID,EPOCH,MEAN_MOTION,ECCENTRICITY,INCLINATION,RA_OF_ASC_NODE,ARG_OF_PERICENTER,MEAN_ANOMALY,EPHEMERIS_TYPE,CLASSIFICATION_TYPE,NORAD_CAT_ID,ELEMENT_SET_NO,REV_AT_EPOCH,BSTAR,MEAN_MOTION_DOT,MEAN_MOTION_DDOT
THURAYA-4,2025-001A,2026-07-10T13:48:57.970080,1.00272689,.00002078,0.0190,68.0478,195.2844,276.7116,0,U,62483,999,441,0,.149E-5,0
SHIJIAN-25 (SJ-25),2025-002A,2026-07-10T14:46:38.603712,1.00265093,.0052136,5.1661,61.0114,175.2648,41.1794,0,U,62485,999,559,0,-.346E-5,0
TJS-14,2025-017A,2026-07-10T15:24:14.988096,1.00273952,.00017782,0.7319,297.3128,293.7870,306.9311,0,U,62804,999,550,0,.126E-5,0
SPAINSAT NG I,2025-021A,2026-07-10T01:22:38.758656,1.00273871,.00002582,0.0169,22.9629,163.4669,151.2031,0,U,62852,999,421,0,.163E-5,0
QZS-6 (MICHIBIKI-6),2025-023A,2026-07-10T13:24:38.653344,1.00268333,.0001813,0.0221,317.3021,172.6763,90.1502,0,U,62876,999,518,0,-.222E-5,0
ZHONGXING-10R,2025-036A,2026-07-10T08:27:38.755296,1.00274088,.00041567,0.0456,225.3526,280.3780,19.9363,0,U,63075,999,519,0,-.342E-5,0
TJS-15,2025-045A,2026-07-10T17:28:32.013120,1.00270936,.0003395,0.3048,85.6295,295.8901,263.6332,0,U,63157,999,499,0,-.256E-5,0
TIANLIAN 2-04,2025-062A,2026-07-10T08:51:03.428352,1.00269927,.00315296,4.3178,274.1058,9.3143,217.6680,0,U,63361,999,483,0,-.119E-5,0
TJS-16,2025-064A,2026-07-10T18:18:01.334016,1.00270903,.0002525,1.1560,81.3121,291.1995,351.2981,0,U,63397,999,462,0,-.97E-6,0
TJS-17,2025-073A,2026-07-10T16:27:38.875104,1.00270433,.0001049,1.1218,82.4934,304.9043,312.6331,0,U,63524,999,452,0,-.62E-6,0
TIANLIAN 2-05,2025-084A,2026-07-10T13:42:06.128064,1.00269823,.00026717,4.3946,279.5655,153.4213,81.4077,0,U,63662,999,461,0,.139E-5,0
TJS-19,2025-097A,2026-07-10T17:41:54.231936,1.00267946,.0003908,3.2484,317.8119,244.5030,133.0478,0,U,63924,999,438,0,-.264E-5,0
CHINASAT 3B,2025-106A,2026-07-10T16:06:43.381152,1.00273832,.0003865,0.0359,172.8749,328.8298,195.8793,0,U,64062,999,429,0,-.35E-6,0
SXM-10,2025-122A,2026-07-10T13:03:09.860832,1.00271764,.00017169,0.0174,38.1956,320.6632,9.2432,0,U,64290,999,391,0,-.7E-7,0
COSMOS 2589,2025-131A,2026-07-10T18:10:12.136224,1.00267949,.0001423,0.0546,99.6427,123.8203,75.7155,0,U,64467,999,379,0,-.281E-5,0
CHINASAT 9C,2025-132A,2026-07-10T13:24:38.653344,1.00270476,.00029135,0.0206,274.4565,197.9798,109.4188,0,U,64470,999,438,0,-.237E-5,0
MTG-S1,2025-143A,2026-07-10T13:36:14.190624,1.00272704,.00034506,0.5872,343.9313,262.0823,246.0994,0,U,64723,999,365,0,.2E-7,0
DROR 1,2025-148A,2026-07-10T13:34:59.310336,1.00271333,.00020397,0.0524,267.1326,129.1608,91.9344,0,U,64784,999,353,0,-.25E-6,0
SHIYAN-29,2025-196A,2026-07-10T11:54:42.700320,1.00277820,.0013565,28.8459,18.2414,177.3330,6.7709,0,U,65486,999,311,0,-.278E-5,0
NUSANTARA LIMA (NUSANTARA 5),2025-205A,2026-07-10T05:35:06.745344,1.00270709,.00004928,0.0015,205.3939,336.5204,302.8780,0,U,65588,999,295,0,-.347E-5,0
TJS-20,2025-238A,2026-07-10T10:28:44.723136,1.00273545,.00043692,5.4196,299.4556,179.3984,29.1063,0,U,66142,999,256,0,.41E-6,0
CMS-03 (GSAT-7R),2025-249B,2026-07-10T13:57:23.405760,1.00271157,.00015216,0.0410,260.2252,177.9129,133.6848,0,U,66311,999,258,0,-.67E-6,0
VIASAT-3 F2,2025-261A,2026-07-10T07:23:38.817888,1.00270895,.00009179,0.0089,251.5940,332.8173,95.7666,0,U,66454,999,302,0,-.223E-5,0
SHIJIAN-28 (SJ-28),2025-277A,2026-07-10T14:09:37.142208,1.00269397,.00011123,4.4802,271.7610,24.8341,321.1732,0,U,66549,999,238,0,-.345E-5,0
TJS-22,2025-290A,2026-07-09T19:33:35.483328,1.00274772,.00022466,1.4745,286.8754,318.3001,42.5207,0,U,66990,999,225,0,.6E-7,0
TJS-23,2025-306A,2026-07-09T12:58:20.972928,1.00274138,.00048855,5.5376,297.3710,190.2855,169.9087,0,U,67226,999,211,0,.35E-6,0
FENGYUN 4C,2025-312A,2026-07-10T17:39:31.959648,1.00270370,.000063,0.0411,183.1635,28.5726,114.8054,0,U,67246,999,201,0,-.314E-5,0
SHIJIAN-29A (SJ-29A),2025-315A,2026-07-10T15:39:48.261024,1.00278718,.0003814,3.4546,94.5528,34.2687,107.8378,0,U,67302,999,185,0,-.63E-6,0
SHIJIAN-29B (SJ-29B),2025-315C,2026-07-10T15:39:55.750176,1.00271939,.0004794,3.4536,94.5445,51.4228,90.7761,0,U,67403,999,192,0,-.62E-6,0
ELEKTRO-L 5,2026-028A,2026-07-09T23:44:04.306272,1.00272020,.00020038,0.2143,322.0774,176.7514,221.1873,0,U,67756,999,148,0,-.86E-6,0
JAM-E JAM 1,2026-028B,2026-07-10T13:45:58.257216,1.00271524,.00016523,0.2155,310.6143,324.2854,254.0929,0,U,67757,999,135,0,.166E-5,0
ECHOSTAR 25,2026-045A,2026-07-10T13:04:54.693408,1.00270009,.00014398,0.0188,42.9577,64.0222,267.7143,0,U,68126,999,122,0,-.47E-6,0
